BEIDOU-2 IGSO-1 (C06)   
1 36828U 10036A   24344.94424378 -.00000030  00000+0  00000+0 0  9997
2 36828  54.2605 167.9725 0043121 205.6874 152.7209  1.00279431 52539
BEIDOU-2 G4 (C04)       
1 37210U 10057A   24345.55871434 -.00000096  00000+0  00000+0 0  9995
2 37210   2.2737  70.2074 0009707 184.2917 186.4427  1.00271238 51744
BEIDOU-2 IGSO-2 (C07)   
1 37256U 10068A   24345.58458635 -.00000224  00000+0  00000+0 0  9997
2 37256  48.5574 278.6675 0040518 216.1310 261.1016  1.00296295 51244
BEIDOU-2 IGSO-3 (C08)   
1 37384U 11013A   24345.11090892 -.00000199  00000+0  00000+0 0  9997
2 37384  61.6092  45.4207 0031145 182.1671 358.6203  1.00264085 50102
BEIDOU-2 IGSO-4 (C09)   
1 37763U 11038A   24344.98382785  .00000082  00000+0  00000+0 0  9994
2 37763  54.5658 170.6229 0130397 228.4228 130.6432  1.00270503 49098
BEIDOU-2 IGSO-5 (C10)   
1 37948U 11073A   24344.59172275 -.00000186  00000+0  00000+0 0  9992
2 37948  48.6944 278.3763 0102604 221.1549 246.1176  1.00292255 47577
BEIDOU-2 G5 (C05)       
1 38091U 12008A   24345.56924259  .00000073  00000+0  00000+0 0  9990
2 38091   2.1941  71.0093 0011885 225.2016  47.2050  1.00272151 46817
BEIDOU-2 M3 (C11)       
1 38250U 12018A   24344.51598924 -.00000059  00000+0  00000+0 0  9993
2 38250  56.2149 323.4962 0025296 268.4374  91.2755  1.86233457 85612
BEIDOU-2 M4 (C12)       
1 38251U 12018B   24344.44659161 -.00000059  00000+0  00000+0 0  9997
2 38251  56.1201 322.7567 0016211 271.5529  88.2639  1.86231900 85964
BEIDOU-2 M6 (C14)       
1 38775U 12050B   24345.23021446 -.00000033  00000+0  00000+0 0  9993
2 38775  56.0590  81.2871 0011023 338.7679  21.1860  1.86230808 82996
BEIDOU-2 G6 (C02)       
1 38953U 12059A   24345.55813362 -.00000160  00000+0  00000+0 0  9992
2 38953   3.0100  79.0672 0007661 287.3478 358.3326  1.00269899 44354
BEIDOU-3S IGSO-1S (C31) 
1 40549U 15019A   24344.84979984 -.00000194  00000+0  00000+0 0  9996
2 40549  50.2476 302.1098 0034973 198.7764 340.3188  1.00264697 35504
BEIDOU-3S M2S (C58)     
1 40748U 15037A   24345.18431907 -.00000066  00000+0  00000+0 0  9991
2 40748  55.3462 321.0423 0012811 262.9698  96.8835  1.86228947 63803
BEIDOU-3S M1S (C57)     
1 40749U 15037B   24344.38377819 -.00000060  00000+0  00000+0 0  9998
2 40749  55.3495 321.0562 0004450 324.7016  35.2704  1.86227402 63790
BEIDOU-3S IGSO-2S (C56) 
1 40938U 15053A   24345.50261469 -.00000160  00000+0  00000+0 0  9995
2 40938  50.0837 265.3430 0051803 188.6826 262.7698  1.00265154 33806
BEIDOU-2 IGSO-6 (C13)   
1 41434U 16021A   24345.55253709 -.00000181  00000+0  00000+0 0  9999
2 41434  59.4379  43.5766 0055156 226.1527 105.7863  1.00279997 31922
BEIDOU-2 G7 (C03)       
1 41586U 16037A   24345.48035369 -.00000338  00000+0  00000+0 0  9990
2 41586   1.8016  67.3885 0007313 341.2922 314.5115  1.00269427  1334
BEIDOU-3 M1 (C19)       
1 43001U 17069A   24344.99605651 -.00000030  00000+0  00000+0 0  9991
2 43001  56.2082  81.4142 0008882 296.8206  63.0891  1.86230938 48281
BEIDOU-3 M2 (C20)       
1 43002U 17069B   24344.93367087 -.00000029  00000+0  00000+0 0  9992
2 43002  56.2076  81.4522 0006221 323.9962  35.9626  1.86230775 48275
BEIDOU-3 M7 (C27)       
1 43107U 18003A   24345.21810796 -.00000068  00000+0  00000+0 0  9992
2 43107  54.8047 321.5546 0002593  56.3854 303.6390  1.86232231 47037
BEIDOU-3 M8 (C28)       
1 43108U 18003B   24345.16000177 -.00000067  00000+0  00000+0 0  9990
2 43108  54.7977 321.5413 0005087 270.1043  89.8371  1.86230714 47046
BEIDOU-3 M4 (C22)       
1 43207U 18018A   24344.52723588 -.00000024  00000+0  00000+0 0  9996
2 43207  56.1667  81.5130 0003740   4.1690 355.8363  1.86230861 46414
BEIDOU-3 M3 (C21)       
1 43208U 18018B   24344.59383280 -.00000025  00000+0  00000+0 0  9996
2 43208  56.1662  81.5150 0006288 309.0189  50.9271  1.86231009 46418
BEIDOU-3 M9 (C29)       
1 43245U 18029A   24345.35043760 -.00000069  00000+0  00000+0 0  9998
2 43245  54.6826 319.2410 0002215 275.6456  84.3265  1.86232273 45580
BEIDOU-3 M10 (C30)      
1 43246U 18029B   24345.27987069 -.00000068  00000+0  00000+0 0  9998
2 43246  54.6799 319.2707 0004100 347.9227  12.0650  1.86232627 45560
BEIDOU-2 IGSO-7 (C16)   
1 43539U 18057A   24345.33716706 -.00000030  00000+0  00000+0 0  9998
2 43539  55.1540 167.8515 0078540 231.9762 273.0142  1.00257480 23587
BEIDOU-3 M5 (C23)       
1 43581U 18062A   24343.89484973  .00000089  00000+0  00000+0 0  9991
2 43581  54.1132 201.1878 0001992 343.8215  16.2542  1.86228514 43298
BEIDOU-3 M6 (C24)       
1 43582U 18062B   24343.75975920  .00000088  00000+0  00000+0 0  9993
2 43582  54.1128 201.1817 0007299  40.8170 319.3196  1.86229563 43294
BEIDOU-3 M12 (C26)      
1 43602U 18067A   24344.23072039  .00000094  00000+0  00000+0 0  9991
2 43602  54.2047 199.8630 0008629  35.0434 325.0952  1.86227644 42786
BEIDOU-3 M11 (C25)      
1 43603U 18067B   24344.90120107  .00000101  00000+0  00000+0 0  9995
2 43603  54.2020 199.8049 0005233  31.0457 329.0685  1.86227157 42822
BEIDOU-3 M13 (C32)      
1 43622U 18072A   24345.39878326 -.00000036  00000+0  00000+0 0  9997
2 43622  56.1394  81.0099 0005716 290.3518  69.5862  1.86230885 42341
BEIDOU-3 M14 (C33)      
1 43623U 18072B   24345.26425421 -.00000034  00000+0  00000+0 0  9996
2 43623  56.1412  81.0078 0003010 322.9342  37.0449  1.86230853 42337
BEIDOU-3 M16 (C35)      
1 43647U 18078A   24344.35190322 -.00000061  00000+0  00000+0 0  9996
2 43647  54.5797 319.3594 0007042   8.2131 351.7988  1.86232099 41821
BEIDOU-3 M15 (C34)      
1 43648U 18078B   24344.48104756 -.00000062  00000+0  00000+0 0  9998
2 43648  54.5754 319.3571 0003788   5.0292 354.9748  1.86231983 41848
BEIDOU-3 G1 (C59)       
1 43683U 18085A   24345.44648602 -.00000261  00000+0  00000+0 0  9996
2 43683   2.6285 103.4163 0001749  64.0383 212.9435  1.00275021 22505
BEIDOU-3 M17 (C36)      
1 43706U 18093A   24345.17093925  .00000101  00000+0  00000+0 0  9995
2 43706  54.1963 201.0957 0006454 299.6289  60.3916  1.86228141 41225
BEIDOU-3 M18 (C37)      
1 43707U 18093B   24343.96092666  .00000090  00000+0  00000+0 0  9999
2 43707  54.1971 201.1286 0006287 341.3125  18.7466  1.86229698 41190
BEIDOU-3 IGSO-1 (C38)   
1 44204U 19023A   24343.73514140 -.00000223  00000+0  00000+0 0  9996
2 44204  57.8983  43.4038 0025030 212.8920 201.6175  1.00248996  1644
BEIDOU-2 G8 (C01)       
1 44231U 19027A   24345.61717041 -.00000231  00000+0  00000+0 0  9993
2 44231   1.9158  74.7767 0004847 199.0681 172.7492  1.00272148 20532
BEIDOU-3 IGSO-2 (C39)   
1 44337U 19035A   24345.41368921 -.00000036  00000+0  00000+0 0  9999
2 44337  55.1916 163.7229 0035463 196.4851 345.8927  1.00284325 20112
BEIDOU-3 M24 (C46)      
1 44542U 19061A   24344.03101313  .00000090  00000+0  00000+0 0  9992
2 44542  54.4240 201.4553 0009095  16.3547 343.7572  1.86229242 35453
BEIDOU-3 M23 (C45)      
1 44543U 19061B   24344.37826622  .00000093  00000+0  00000+0 0  9990
2 44543  54.4224 201.4123 0005701  14.7017 130.8340  1.86229323 35462
BEIDOU-3 IGSO-3 (C40)   
1 44709U 19073A   24344.25777152 -.00000208  00000+0  00000+0 0  9996
2 44709  55.7548 286.8678 0039923 190.1262 169.7672  1.00248741 18893
BEIDOU-3 M22 (C44)      
1 44793U 19078A   24344.41211102 -.00000062  00000+0  00000+0 0  9998
2 44793  54.4271 319.2680 0005762  11.8040 348.2097  1.86231842 34325
BEIDOU-3 M21 (C43)      
1 44794U 19078B   24345.07838584 -.00000067  00000+0  00000+0 0  9996
2 44794  54.4000 319.2169 0003958 357.1820   2.8140  1.86232369 34333
BEIDOU-3 M19 (C41)      
1 44864U 19090A   24345.30192998 -.00000034  00000+0  00000+0 0  9990
2 44864  56.0734  81.1747 0017385 279.0123  62.8431  1.86231197 33917
BEIDOU-3 M20 (C42)      
1 44865U 19090B   24343.67018081 -.00000015  00000+0  00000+0 0  9998
2 44865  56.0736  81.2630 0014615 291.7084 125.8352  1.86231206 33870
BEIDOU-3 G2 (C60)       
1 45344U 20017A   24345.55813362 -.00000127  00000+0  00000+0 0  9990
2 45344   2.5614  35.6734 0004512 223.3364 101.7371  1.00271009 17708
BEIDOU-3 G3 (C61)       
1 45807U 20040A   24345.48035369 -.00000338  00000+0  00000+0 0  9999
2 45807   1.1274  57.3194 0003805 295.8156   9.9667  1.00265006 16512
BEIDOU-3 G4 (C62)       
1 56564U 23066A   24345.55766191 -.00000095  00000+0  00000+0 0  9994
2 56564   1.6858 289.1480 0004110 263.2540 248.1643  1.00270128  5842
BEIDOU-3 M28 (C50)      
1 58654U 23207A   24344.62449122 -.00000027  00000+0  00000+0 0  9997
2 58654  55.2586  81.0911 0002363 250.9943 108.9820  1.86231863  6515
BEIDOU-3 M26 (C48)      
1 58655U 23207B   24345.49775165 -.00000037  00000+0  00000+0 0  9994
2 58655  55.2614  81.0470 0003763 240.8124 119.1485  1.86231319  6519
